CORAL                   
1 67685U 98067YB  26053.26386880  .00043964  00000+0  75228-3 0  9991
2 67685  51.6309 148.4008 0011960 131.3662 228.8357 15.50732756  2392
ISS OBJECT YC           
1 67686U 98067YC  26053.26221280  .00051037  00000+0  86445-3 0  9997
2 67686  51.6313 148.3904 0007688 102.1023 258.0827 15.50999605  2396
LEOPARD                 
1 67687U 98067YD  26053.26453402  .00041560  00000+0  71517-3 0  9995
2 67687  51.6314 148.4060 0007769 105.0443 255.1406 15.50644327  2311
ISS OBJECT YE           
1 67688U 98067YE  26053.26289914  .00047740  00000+0  81295-3 0  9991
2 67688  51.6324 148.3958 0007695 103.3001 256.8847 15.50878079  2317
PRC TEST SPACECRAFT 4   
1 67689U 26024A   26053.28658066 -.00000002  00000+0  23865-4 0  9997
2 67689  49.9851  95.0781 0006184 300.7981  59.2352 14.91676025  2280
CZ-2F R/B               
1 67690U 26024B   26053.19965464  .00020730  00000+0  38432-3 0  9996
2 67690  49.9858  92.2509 0176237 210.6636 148.3931 15.33651452  2310
CZ-2F DEB               
1 67691U 26024C   26053.27146756  .00818516  10449-4  88875-3 0  9997
2 67691  49.9057  88.0326 0218807 220.7215 137.7226 15.76427226  2368
CZ-2F DEB               
1 67692U 26024D   26053.24749226  .00225249  00000+0  43680-2 0  9992
2 67692  50.3140  94.2261 0253800 219.2777 138.9526 15.18704894  2274
STARLINK-36748          
1 67693U 26025A   26053.25002314  .00042125  00000+0  21977-3 0  9991
2 67693  97.2796 164.0100 0001265  66.4345  13.0952 15.80798923  3361
STARLINK-36753          
1 67694U 26025B   26053.25002314  .00060938  00000+0  31707-3 0  9996
2 67694  97.2775 164.0225 0001374  86.0691  23.1715 15.80787654  3526
STARLINK-36750          
1 67695U 26025C   26053.25002314  .00106311  00000+0  54998-3 0  9990
2 67695  97.2795 164.0145 0000729 102.9939 347.2865 15.80778190  3370
STARLINK-36401          
1 67696U 26025D   26053.25002314  .00084209  00000+0  43708-3 0  9999
2 67696  97.2780 164.0183 0000872  79.6930  19.4305 15.80769254  3375
