CCSDS_OMM_VERS = 2.0
CREATION_DATE  = 
ORIGINATOR     = 

OBJECT_NAME    = CORAL
OBJECT_ID      = 1998-067YB
CENTER_NAME    = EARTH
REF_FRAME      = TEME
TIME_SYSTEM    = UTC
MEAN_ELEMENT_THEORY = SGP/SGP4

EPOCH          = 2026-02-22T06:19:58.264320
MEAN_MOTION    = 15.50732756
ECCENTRICITY   = .001196
INCLINATION    = 51.6309
RA_OF_ASC_NODE = 148.4008
ARG_OF_PERICENTER = 131.3662
MEAN_ANOMALY   = 228.8357

EPHEMERIS_TYPE = 0
CLASSIFICATION_TYPE = U
NORAD_CAT_ID   = 67685
ELEMENT_SET_NO = 999
REV_AT_EPOCH   = 239
BSTAR          = .75228E-3
MEAN_MOTION_DOT = .43964E-3
MEAN_MOTION_DDOT = 0

CCSDS_OMM_VERS = 2.0
CREATION_DATE  = 
ORIGINATOR     = 

OBJECT_NAME    = ISS OBJECT YC
OBJECT_ID      = 1998-067YC
CENTER_NAME    = EARTH
REF_FRAME      = TEME
TIME_SYSTEM    = UTC
MEAN_ELEMENT_THEORY = SGP/SGP4

EPOCH          = 2026-02-22T06:17:35.185920
MEAN_MOTION    = 15.50999605
ECCENTRICITY   = .0007688
INCLINATION    = 51.6313
RA_OF_ASC_NODE = 148.3904
ARG_OF_PERICENTER = 102.1023
MEAN_ANOMALY   = 258.0827

EPHEMERIS_TYPE = 0
CLASSIFICATION_TYPE = U
NORAD_CAT_ID   = 67686
ELEMENT_SET_NO = 999
REV_AT_EPOCH   = 239
BSTAR          = .86445E-3
MEAN_MOTION_DOT = .51037E-3
MEAN_MOTION_DDOT = 0

CCSDS_OMM_VERS = 2.0
CREATION_DATE  = 
ORIGINATOR     = 

OBJECT_NAME    = LEOPARD
OBJECT_ID      = 1998-067YD
CENTER_NAME    = EARTH
REF_FRAME      = TEME
TIME_SYSTEM    = UTC
MEAN_ELEMENT_THEORY = SGP/SGP4

EPOCH          = 2026-02-22T06:20:55.739328
MEAN_MOTION    = 15.50644327
ECCENTRICITY   = .0007769
INCLINATION    = 51.6314
RA_OF_ASC_NODE = 148.4060
ARG_OF_PERICENTER = 105.0443
MEAN_ANOMALY   = 255.1406

EPHEMERIS_TYPE = 0
CLASSIFICATION_TYPE = U
NORAD_CAT_ID   = 67687
ELEMENT_SET_NO = 999
REV_AT_EPOCH   = 231
BSTAR          = .71517E-3
MEAN_MOTION_DOT = .4156E-3
MEAN_MOTION_DDOT = 0

CCSDS_OMM_VERS = 2.0
CREATION_DATE  = 
ORIGINATOR     = 

OBJECT_NAME    = ISS OBJECT YE
OBJECT_ID      = 1998-067YE
CENTER_NAME    = EARTH
REF_FRAME      = TEME
TIME_SYSTEM    = UTC
MEAN_ELEMENT_THEORY = SGP/SGP4

EPOCH          = 2026-02-22T06:18:34.485696
MEAN_MOTION    = 15.50878079
ECCENTRICITY   = .0007695
INCLINATION    = 51.6324
RA_OF_ASC_NODE = 148.3958
ARG_OF_PERICENTER = 103.3001
MEAN_ANOMALY   = 256.8847

EPHEMERIS_TYPE = 0
CLASSIFICATION_TYPE = U
NORAD_CAT_ID   = 67688
ELEMENT_SET_NO = 999
REV_AT_EPOCH   = 231
BSTAR          = .81295E-3
MEAN_MOTION_DOT = .4774E-3
MEAN_MOTION_DDOT = 0

CCSDS_OMM_VERS = 2.0
CREATION_DATE  = 
ORIGINATOR     = 

OBJECT_NAME    = PRC TEST SPACECRAFT 4
OBJECT_ID      = 2026-024A
CENTER_NAME    = EARTH
REF_FRAME      = TEME
TIME_SYSTEM    = UTC
MEAN_ELEMENT_THEORY = SGP/SGP4

EPOCH          = 2026-02-22T06:52:40.569024
MEAN_MOTION    = 14.91676025
ECCENTRICITY   = .0006184
INCLINATION    = 49.9851
RA_OF_ASC_NODE = 95.0781
ARG_OF_PERICENTER = 300.7981
MEAN_ANOMALY   = 59.2352

EPHEMERIS_TYPE = 0
CLASSIFICATION_TYPE = U
NORAD_CAT_ID   = 67689
ELEMENT_SET_NO = 999
REV_AT_EPOCH   = 228
BSTAR          = .23865E-4
MEAN_MOTION_DOT = -.2E-7
MEAN_MOTION_DDOT = 0

CCSDS_OMM_VERS = 2.0
CREATION_DATE  = 
ORIGINATOR     = 

OBJECT_NAME    = CZ-2F R/B
OBJECT_ID      = 2026-024B
CENTER_NAME    = EARTH
REF_FRAME      = TEME
TIME_SYSTEM    = UTC
MEAN_ELEMENT_THEORY = SGP/SGP4

EPOCH          = 2026-02-22T04:47:30.160896
MEAN_MOTION    = 15.33651452
ECCENTRICITY   = .0176237
INCLINATION    = 49.9858
RA_OF_ASC_NODE = 92.2509
ARG_OF_PERICENTER = 210.6636
MEAN_ANOMALY   = 148.3931

EPHEMERIS_TYPE = 0
CLASSIFICATION_TYPE = U
NORAD_CAT_ID   = 67690
ELEMENT_SET_NO = 999
REV_AT_EPOCH   = 231
BSTAR          = .38432E-3
MEAN_MOTION_DOT = .2073E-3
MEAN_MOTION_DDOT = 0

CCSDS_OMM_VERS = 2.0
CREATION_DATE  = 
ORIGINATOR     = 

OBJECT_NAME    = CZ-2F DEB
OBJECT_ID      = 2026-024C
CENTER_NAME    = EARTH
REF_FRAME      = TEME
TIME_SYSTEM    = UTC
MEAN_ELEMENT_THEORY = SGP/SGP4

EPOCH          = 2026-02-22T06:30:54.797184
MEAN_MOTION    = 15.76427226
ECCENTRICITY   = .0218807
INCLINATION    = 49.9057
RA_OF_ASC_NODE = 88.0326
ARG_OF_PERICENTER = 220.7215
MEAN_ANOMALY   = 137.7226

EPHEMERIS_TYPE = 0
CLASSIFICATION_TYPE = U
NORAD_CAT_ID   = 67691
ELEMENT_SET_NO = 999
REV_AT_EPOCH   = 236
BSTAR          = .88875E-3
MEAN_MOTION_DOT = .818516E-2
MEAN_MOTION_DDOT = .10449E-4

CCSDS_OMM_VERS = 2.0
CREATION_DATE  = 
ORIGINATOR     = 

OBJECT_NAME    = CZ-2F DEB
OBJECT_ID      = 2026-024D
CENTER_NAME    = EARTH
REF_FRAME      = TEME
TIME_SYSTEM    = UTC
MEAN_ELEMENT_THEORY = SGP/SGP4

EPOCH          = 2026-02-22T05:56:23.331264
MEAN_MOTION    = 15.18704894
ECCENTRICITY   = .02538
INCLINATION    = 50.3140
RA_OF_ASC_NODE = 94.2261
ARG_OF_PERICENTER = 219.2777
MEAN_ANOMALY   = 138.9526

EPHEMERIS_TYPE = 0
CLASSIFICATION_TYPE = U
NORAD_CAT_ID   = 67692
ELEMENT_SET_NO = 999
REV_AT_EPOCH   = 227
BSTAR          = .4368E-2
MEAN_MOTION_DOT = .225249E-2
MEAN_MOTION_DDOT = 0

CCSDS_OMM_VERS = 2.0
CREATION_DATE  = 
ORIGINATOR     = 

OBJECT_NAME    = STARLINK-36748
OBJECT_ID      = 2026-025A
CENTER_NAME    = EARTH
REF_FRAME      = TEME
TIME_SYSTEM    = UTC
MEAN_ELEMENT_THEORY = SGP/SGP4

EPOCH          = 2026-02-22T06:00:01.999296
MEAN_MOTION    = 15.80798923
ECCENTRICITY   = .0001265
INCLINATION    = 97.2796
RA_OF_ASC_NODE = 164.0100
ARG_OF_PERICENTER = 66.4345
MEAN_ANOMALY   = 13.0952

EPHEMERIS_TYPE = 0
CLASSIFICATION_TYPE = U
NORAD_CAT_ID   = 67693
ELEMENT_SET_NO = 999
REV_AT_EPOCH   = 336
BSTAR          = .21977E-3
MEAN_MOTION_DOT = .42125E-3
MEAN_MOTION_DDOT = 0

CCSDS_OMM_VERS = 2.0
CREATION_DATE  = 
ORIGINATOR     = 

OBJECT_NAME    = STARLINK-36753
OBJECT_ID      = 2026-025B
CENTER_NAME    = EARTH
REF_FRAME      = TEME
TIME_SYSTEM    = UTC
MEAN_ELEMENT_THEORY = SGP/SGP4

EPOCH          = 2026-02-22T06:00:01.999296
MEAN_MOTION    = 15.80787654
ECCENTRICITY   = .0001374
INCLINATION    = 97.2775
RA_OF_ASC_NODE = 164.0225
ARG_OF_PERICENTER = 86.0691
MEAN_ANOMALY   = 23.1715

EPHEMERIS_TYPE = 0
CLASSIFICATION_TYPE = U
NORAD_CAT_ID   = 67694
ELEMENT_SET_NO = 999
REV_AT_EPOCH   = 352
BSTAR          = .31707E-3
MEAN_MOTION_DOT = .60938E-3
MEAN_MOTION_DDOT = 0

CCSDS_OMM_VERS = 2.0
CREATION_DATE  = 
ORIGINATOR     = 

OBJECT_NAME    = STARLINK-36750
OBJECT_ID      = 2026-025C
CENTER_NAME    = EARTH
REF_FRAME      = TEME
TIME_SYSTEM    = UTC
MEAN_ELEMENT_THEORY = SGP/SGP4

EPOCH          = 2026-02-22T06:00:01.999296
MEAN_MOTION    = 15.80778190
ECCENTRICITY   = .0000729
INCLINATION    = 97.2795
RA_OF_ASC_NODE = 164.0145
ARG_OF_PERICENTER = 102.9939
MEAN_ANOMALY   = 347.2865

EPHEMERIS_TYPE = 0
CLASSIFICATION_TYPE = U
NORAD_CAT_ID   = 67695
ELEMENT_SET_NO = 999
REV_AT_EPOCH   = 337
BSTAR          = .54998E-3
MEAN_MOTION_DOT = .106311E-2
MEAN_MOTION_DDOT = 0

CCSDS_OMM_VERS = 2.0
CREATION_DATE  = 
ORIGINATOR     = 

OBJECT_NAME    = STARLINK-36401
OBJECT_ID      = 2026-025D
CENTER_NAME    = EARTH
REF_FRAME      = TEME
TIME_SYSTEM    = UTC
MEAN_ELEMENT_THEORY = SGP/SGP4

EPOCH          = 2026-02-22T06:00:01.999296
MEAN_MOTION    = 15.80769254
ECCENTRICITY   = .0000872
INCLINATION    = 97.2780
RA_OF_ASC_NODE = 164.0183
ARG_OF_PERICENTER = 79.6930
MEAN_ANOMALY   = 19.4305

EPHEMERIS_TYPE = 0
CLASSIFICATION_TYPE = U
NORAD_CAT_ID   = 67696
ELEMENT_SET_NO = 999
REV_AT_EPOCH   = 337
BSTAR          = .43708E-3
MEAN_MOTION_DOT = .84209E-3
MEAN_MOTION_DDOT = 0

